NORAD_CAT_ID,OBJECT_NAME,OBJECT_TYPE,EPOCH,MEAN_MOTION,ECCENTRICITY,INCLINATION,RA_OF_ASC_NODE,ARG_OF_PERICENTER,MEAN_ANOMALY,BSTAR,MEAN_MOTION_DOT,MEAN_MOTION_DDOT,TLE_LINE0,TLE_LINE1,TLE_LINE2,SEMIMAJOR_AXIS,PERIOD,APOGEE,PERIGEE,DECAYED
54159.0,STARLINK-5294,PAYLOAD,2023-09-20 19:25:59,15.08815694,0.0001936,53.2162,98.428,85.9217,274.1997,-0.00034977,-5.847e-05,0.0,0 STARLINK-5294,1 54159U 22141C   23263.80971586 -.00005847  00000-0 -34977-3 0  9993,2 54159  53.2162  98.4280 0001936  85.9217 274.1997 15.08815694 49714,6917.955,95.439,541.159,538.48,0.0
54159.0,STARLINK-5294,PAYLOAD,2023-09-20 22:36:46,15.08791577,0.0001464,53.2159,97.8332,86.7792,273.3368,-0.00074145,-0.00012053,0.0,0 STARLINK-5294,1 54159U 22141C   23263.94220612 -.00012053  00000-0 -74145-3 0  9993,2 54159  53.2159  97.8332 0001464  86.7792 273.3368 15.08791577 49732,6918.028,95.441,540.906,538.881,0.0
54159.0,STARLINK-5294,PAYLOAD,2023-09-21 12:55:14,15.08827972,0.0001515,53.2157,95.1546,89.1312,270.9854,4.4477e-05,4.2e-06,0.0,0 STARLINK-5294,1 54159U 22141C   23264.53836073  .00000420  00000-0  44477-4 0  9992,2 54159  53.2157  95.1546 0001515  89.1312 270.9854 15.08827972 49822,6917.917,95.438,540.83,538.734,0.0
54159.0,STARLINK-5294,PAYLOAD,2023-09-21 17:41:23,15.08844402,0.0001488,53.2154,94.2643,83.0376,277.0785,0.00023216,3.409e-05,0.0,0 STARLINK-5294,1 54159U 22141C   23264.73707449  .00003409  00000-0  23216-3 0  9995,2 54159  53.2154  94.2643 0001488  83.0376 277.0785 15.08844402 49850,6917.867,95.437,540.761,538.703,0.0
54159.0,STARLINK-5294,PAYLOAD,2023-09-21 19:16:46,15.08847051,0.0001462,53.2159,93.9672,75.6313,284.4842,0.00028378,4.232e-05,0.0,0 STARLINK-5294,1 54159U 22141C   23264.80331436  .00004232  00000-0  28378-3 0  9991,2 54159  53.2159  93.9672 0001462  75.6313 284.4842 15.08847051 49863,6917.859,95.437,540.735,538.712,0.0
54159.0,STARLINK-5294,PAYLOAD,2023-09-22 12:46:01,15.08843734,0.0001622,53.2158,90.6962,73.4662,286.6508,0.00083996,0.00013107,0.0,0 STARLINK-5294,1 54159U 22141C   23265.53196076  .00013107  00000-0  83996-3 0  9999,2 54159  53.2158  90.6962 0001622  73.4662 286.6508 15.08843734 49978,6917.869,95.437,540.856,538.612,0.0
54159.0,STARLINK-5294,PAYLOAD,2023-09-22 19:07:33,15.0885677,0.000169,53.2158,89.5066,77.3013,282.8168,0.00094202,0.00014743,0.0,0 STARLINK-5294,1 54159U 22141C   23265.79691531  .00014743  00000-0  94202-3 0  9992,2 54159  53.2158  89.5066 0001690  77.3013 282.8168 15.08856770 50019,6917.829,95.436,540.863,538.525,0.0
54159.0,STARLINK-5294,PAYLOAD,2023-09-23 12:36:47,15.08859013,0.0001643,53.2159,86.236,64.8385,295.2778,3.0235e-05,1.93e-06,0.0,0 STARLINK-5294,1 54159U 22141C   23266.52554540  .00000193  00000-0  30235-4 0  9993,2 54159  53.2159  86.2360 0001643  64.8385 295.2778 15.08859013 50122,6917.822,95.436,540.824,538.551,0.0
54159.0,STARLINK-5294,PAYLOAD,2023-09-23 18:58:19,15.08855084,0.0001467,53.2159,85.0463,71.6986,288.4165,-3.9382e-05,-9.15e-06,0.0,0 STARLINK-5294,1 54159U 22141C   23266.79050328 -.00000915  00000-0 -39382-4 0  9993,2 54159  53.2159  85.0463 0001467  71.6986 288.4165 15.08855084 50162,6917.834,95.437,540.714,538.684,0.0
54159.0,STARLINK-5294,PAYLOAD,2023-09-24 18:49:06,15.08849706,0.0001529,53.2161,80.5866,71.7173,288.3986,-9.3877e-05,-1.782e-05,0.0,0 STARLINK-5294,1 54159U 22141C   23267.78410158 -.00001782  00000-0 -93877-4 0  9996,2 54159  53.2161  80.5866 0001529  71.7173 288.3986 15.08849706 50311,6917.851,95.437,540.773,538.658,0.0
54159.0,STARLINK-5294,PAYLOAD,2023-09-25 04:21:25,15.08846053,0.0001507,53.216,78.8021,75.5847,284.5313,-6.8443e-05,-1.377e-05,0.0,0 STARLINK-5294,1 54159U 22141C   23268.18154152 -.00001377  00000-0 -68443-4 0  9991,2 54159  53.2160  78.8021 0001507  75.5847 284.5313 15.08846053 50379,6917.862,95.437,540.769,538.684,0.0
54159.0,STARLINK-5294,PAYLOAD,2023-09-25 20:15:16,15.08849837,0.0001396,53.2161,75.8282,87.6236,272.4916,0.00019077,2.75e-05,0.0,0 STARLINK-5294,1 54159U 22141C   23268.84394041  .00002750  00000-0  19077-3 0  9999,2 54159  53.2161  75.8282 0001396  87.6236 272.4916 15.08849837 50477,6917.85,95.437,540.681,538.75,0.0
54159.0,STARLINK-5294,PAYLOAD,2023-09-25 21:50:39,15.08850845,0.0001401,53.2161,75.5304,87.7982,272.3171,0.00020881,3.038e-05,0.0,0 STARLINK-5294,1 54159U 22141C   23268.91017974  .00003038  00000-0  20881-3 0  9999,2 54159  53.2161  75.5304 0001401  87.7982 272.3171 15.08850845 50489,6917.847,95.437,540.681,538.743,0.0
54159.0,STARLINK-5294,PAYLOAD,2023-09-26 16:55:18,15.08834433,0.0001743,53.2174,71.958,99.1998,260.9191,-3.0346e-05,-7.71e-06,0.0,0 STARLINK-5294,1 54159U 22141C   23269.70507117 -.00000771  00000-0 -30346-4 0  9991,2 54159  53.2174  71.9580 0001743  99.1998 260.9191 15.08834433 50606,6917.897,95.438,540.968,538.557,0.0
54159.0,STARLINK-5294,PAYLOAD,2023-09-26 20:06:04,15.08836926,0.0001652,53.2173,71.3637,81.6695,278.4485,2.4984e-05,1.1e-06,0.0,0 STARLINK-5294,1 54159U 22141C   23269.83755144  .00000110  00000-0  24984-4 0  9996,2 54159  53.2173  71.3637 0001652  81.6695 278.4485 15.08836926 50622,6917.89,95.438,540.898,538.612,0.0
54159.0,STARLINK-5294,PAYLOAD,2023-09-27 10:24:33,15.0883295,0.0001598,53.2162,68.69,84.3305,275.7869,4.5512e-05,4.36e-06,0.0,0 STARLINK-5294,1 54159U 22141C   23270.43371661  .00000436  00000-0  45512-4 0  9993,2 54159  53.2162  68.6900 0001598  84.3305 275.7869 15.08832950 50718,6917.902,95.438,540.872,538.661,0.0
54159.0,STARLINK-5294,PAYLOAD,2023-09-27 18:21:28,15.08840592,0.0001485,53.2162,67.2051,89.2301,270.8861,5.7013e-05,6.2e-06,0.0,0 STARLINK-5294,1 54159U 22141C   23270.76491386  .00000620  00000-0  57013-4 0  9990,2 54159  53.2162  67.2051 0001485  89.2301 270.8861 15.08840592 50769,6917.879,95.438,540.771,538.716,0.0
54159.0,STARLINK-5294,PAYLOAD,2023-09-28 15:01:29,15.08848459,0.0001537,53.2166,63.3399,81.47,278.6467,0.00023141,3.398e-05,0.0,0 STARLINK-5294,1 54159U 22141C   23271.62603147  .00003398  00000-0  23141-3 0  9995,2 54159  53.2166  63.3399 0001537  81.4700 278.6467 15.08848459 50892,6917.855,95.437,540.783,538.656,0.0
54159.0,STARLINK-5294,PAYLOAD,2023-09-28 16:36:52,15.08850356,0.0001524,53.2167,63.0427,83.7301,276.3865,0.00025697,3.805e-05,0.0,0 STARLINK-5294,1 54159U 22141C   23271.69227044  .00003805  00000-0  25697-3 0  9991,2 54159  53.2167  63.0427 0001524  83.7301 276.3865 15.08850356 50908,6917.849,95.437,540.768,538.659,0.0
54159.0,STARLINK-5294,PAYLOAD,2023-09-29 10:06:07,15.08842142,0.0001226,53.2173,59.7705,84.1771,275.9361,7.8672e-05,9.64e-06,0.0,0 STARLINK-5294,1 54159U 22141C   23272.42091440  .00000964  00000-0  78672-4 0  9997,2 54159  53.2173  59.7705 0001226  84.1771 275.9361 15.08842142 51014,6917.874,95.437,540.587,538.891,0.0
54159.0,STARLINK-5294,PAYLOAD,2023-09-29 13:16:53,15.08843796,0.0001345,53.2175,59.1769,83.3066,276.8079,0.0001123,1.5e-05,0.0,0 STARLINK-5294,1 54159U 22141C   23272.55339376  .00001500  00000-0  11230-3 0  9997,2 54159  53.2175  59.1769 0001345  83.3066 276.8079 15.08843796 51034,6917.869,95.437,540.664,538.803,0.0
54159.0,STARLINK-5294,PAYLOAD,2023-09-29 14:52:16,15.08844775,0.0001354,53.2176,58.8796,82.3931,277.7214,0.00012754,1.743e-05,0.0,0 STARLINK-5294,1 54159U 22141C   23272.61963337  .00001743  00000-0  12754-3 0  9995,2 54159  53.2176  58.8796 0001354  82.3931 277.7214 15.08844775 51041,6917.866,95.437,540.667,538.794,0.0
54159.0,STARLINK-5294,PAYLOAD,2023-09-30 16:18:26,15.08842614,0.0001401,53.2182,54.122,91.1034,269.0119,1.2411e-05,-9e-07,0.0,0 STARLINK-5294,1 54159U 22141C   23273.67947293 -.00000090  00000-0  12411-4 0  9991,2 54159  53.2182  54.1220 0001401  91.1034 269.0119 15.08842614 51200,6917.872,95.437,540.707,538.768,0.0
54159.0,STARLINK-5294,PAYLOAD,2023-10-01 12:58:26,15.08849481,0.0001395,53.2186,50.2569,96.193,263.9221,0.00021182,3.086e-05,0.0,0 STARLINK-5294,1 54159U 22141C   23274.54058843  .00003086  00000-0  21182-3 0  9993,2 54159  53.2186  50.2569 0001395  96.1930 263.9221 15.08849481 51339,6917.851,95.437,540.681,538.751,0.0
54159.0,STARLINK-5294,PAYLOAD,2023-10-01 16:09:12,15.08865759,0.0001547,53.219,49.6663,107.611,252.5052,-0.00014433,-2.586e-05,0.0,0 STARLINK-5294,1 54159U 22141C   23274.67305790 -.00002586  00000-0 -14433-3 0  9990,2 54159  53.2190  49.6663 0001547 107.6110 252.5052 15.08865759 51352,6917.802,95.436,540.737,538.596,0.0
54159.0,STARLINK-5294,PAYLOAD,2023-10-02 01:41:31,15.08850335,0.000132,53.2182,47.8817,108.3863,251.7273,0.0001504,2.107e-05,0.0,0 STARLINK-5294,1 54159U 22141C   23275.07050514  .00002107  00000-0  15040-3 0  9998,2 54159  53.2182  47.8817 0001320 108.3863 251.7273 15.08850335 51413,6917.849,95.437,540.627,538.801,0.0
54159.0,STARLINK-5294,PAYLOAD,2023-10-02 09:38:28,15.08826514,0.0001476,53.2189,46.3908,98.5102,261.6058,-0.00012196,-2.228e-05,0.0,0 STARLINK-5294,1 54159U 22141C   23275.40171838 -.00002228  00000-0 -12196-3 0  9993,2 54159  53.2189  46.3908 0001476  98.5102 261.6058 15.08826514 51461,6917.922,95.438,540.808,538.766,0.0
54159.0,STARLINK-5294,PAYLOAD,2023-10-02 14:24:37,15.08832386,0.0001504,53.2179,45.4995,94.1762,265.9402,-0.00011763,-2.159e-05,0.0,0 STARLINK-5294,1 54159U 22141C   23275.60043485 -.00002159  00000-0 -11763-3 0  9993,2 54159  53.2179  45.4995 0001504  94.1762 265.9402 15.08832386 51499,6917.904,95.438,540.809,538.728,0.0
54159.0,STARLINK-5294,PAYLOAD,2023-10-03 14:15:24,15.08841935,0.0001626,53.2181,41.0385,90.998,269.1199,0.00057251,8.836e-05,0.0,0 STARLINK-5294,1 54159U 22141C   23276.59403773  .00008836  00000-0  57251-3 0  9990,2 54159  53.2181  41.0385 0001626  90.9980 269.1199 15.08841935 51644,6917.874,95.437,540.864,538.615,0.0
54159.0,STARLINK-5294,PAYLOAD,2023-10-03 15:50:47,15.08845867,0.0001645,53.2181,40.7413,89.7123,270.4057,0.00074678,0.00011619,0.0,0 STARLINK-5294,1 54159U 22141C   23276.66027753  .00011619  00000-0  74678-3 0  9993,2 54159  53.2181  40.7413 0001645  89.7123 270.4057 15.08845867 51655,6917.862,95.437,540.865,538.589,0.0
